STARLINK-34042          
1 63838U 25093C   25230.18818013  .00012866  00000+0  47600-3 0  9991
2 63838  42.9996 143.3247 0001378 267.4164  92.6530 15.27597672 16892
STARLINK-34040          
1 63839U 25093D   25230.47237619  .00017451  00000+0  64201-3 0  9992
2 63839  42.9999 145.4846 0001017 280.2923  79.7814 15.27588207 16895
STARLINK-33990          
1 63840U 25093E   25230.47494120  .00025551  00000+0  93469-3 0  9994
2 63840  43.0012 145.4890 0001101 285.2062  74.8668 15.27583933 16677
STARLINK-34056          
1 63841U 25093F   25230.49424716  .00017830  00000+0  65592-3 0  9998
2 63841  43.0042 145.6513 0001097 299.8219  60.2523 15.27578522 16671
STARLINK-34026          
1 63842U 25093G   25230.49549253  .00019187  00000+0  70466-3 0  9996
2 63842  43.0040 145.6584 0001784 261.9083  98.1566 15.27593522 16674
STARLINK-33777          
1 63843U 25093H   25230.45823894  .00005550  00000+0  21101-3 0  9990
2 63843  43.0004 145.3769 0001105 281.1420  78.9307 15.27583949 16898
STARLINK-34041          
1 63844U 25093J   25230.17370895  .00020674  00000+0  75812-3 0  9990
2 63844  43.0013 147.5462 0001714 265.6278  94.4378 15.27605321 16842
STARLINK-34011          
1 63845U 25093K   25230.18142163  .00017162  00000+0  63164-3 0  9992
2 63845  43.0003 147.6066 0001548 265.0512  95.0163 15.27583817 16623
STARLINK-34044          
1 63846U 25093L   25230.45952384  .00013197  00000+0  48799-3 0  9998
2 63846  43.0011 145.3893 0000876 263.4841  96.5911 15.27597343 16677
STARLINK-34037          
1 63847U 25093M   25230.46980177  .00010827  00000+0  40219-3 0  9997
2 63847  43.0021 145.4628 0001211 288.6149  71.4571 15.27596494 16894
STARLINK-34010          
1 63848U 25093N   25230.47622790  .00012188  00000+0  45167-3 0  9992
2 63848  43.0024 145.5077 0001209 294.2201  65.8525 15.27582507 16678
STARLINK-34009          
1 63849U 25093P   25230.10366960  .00028359  00000+0  10354-2 0  9993
2 63849  43.0016 144.4136 0001488 288.9304  71.1386 15.27602374 16879
STARLINK-33958          
1 63850U 25093Q   25230.10960802  .00021265  00000+0  77938-3 0  9991
2 63850  43.0018 147.9229 0001726 269.1150  90.9504 15.27608615 16672
STARLINK-33776          
1 63851U 25093R   25230.46337611  .00024259  00000+0  88785-3 0  9995
2 63851  43.0013 145.4140 0001269 279.3939  80.6770 15.27592826 16883
STARLINK-34032          
1 63853U 25093T   25230.13901173  .00011799  00000+0  43736-3 0  9993
2 63853  43.0006 147.2626 0001315 280.5732  79.4971 15.27597328 16840
STARLINK-34015          
1 63854U 25093U   25230.17756267  .00016175  00000+0  59571-3 0  9997
2 63854  42.9992 147.5559 0001463 267.7584  92.3100 15.27596068 16687
