[{"OBJECT_NAME":"STARLINK-34042","OBJECT_ID":"2025-093C","EPOCH":"2025-08-18T04:30:58.763232","MEAN_MOTION":15.27597672,"ECCENTRICITY":0.0001378,"INCLINATION":42.9996,"RA_OF_ASC_NODE":143.3247,"ARG_OF_PERICENTER":267.4164,"MEAN_ANOMALY":92.653,"EPHEMERIS_TYPE":0,"CLASSIFICATION_TYPE":"U","NORAD_CAT_ID":63838,"ELEMENT_SET_NO":999,"REV_AT_EPOCH":1689,"BSTAR":0.000476,"MEAN_MOTION_DOT":0.00012866,"MEAN_MOTION_DDOT":0},{"OBJECT_NAME":"STARLINK-34040","OBJECT_ID":"2025-093D","EPOCH":"2025-08-18T11:20:13.302816","MEAN_MOTION":15.27588207,"ECCENTRICITY":0.0001017,"INCLINATION":42.9999,"RA_OF_ASC_NODE":145.4846,"ARG_OF_PERICENTER":280.2923,"MEAN_ANOMALY":79.7814,"EPHEMERIS_TYPE":0,"CLASSIFICATION_TYPE":"U","NORAD_CAT_ID":63839,"ELEMENT_SET_NO":999,"REV_AT_EPOCH":1689,"BSTAR":0.00064201,"MEAN_MOTION_DOT":0.00017451,"MEAN_MOTION_DDOT":0},{"OBJECT_NAME":"STARLINK-33990","OBJECT_ID":"2025-093E","EPOCH":"2025-08-18T11:23:54.919680","MEAN_MOTION":15.27583933,"ECCENTRICITY":0.0001101,"INCLINATION":43.0012,"RA_OF_ASC_NODE":145.489,"ARG_OF_PERICENTER":285.2062,"MEAN_ANOMALY":74.8668,"EPHEMERIS_TYPE":0,"CLASSIFICATION_TYPE":"U","NORAD_CAT_ID":63840,"ELEMENT_SET_NO":999,"REV_AT_EPOCH":1667,"BSTAR":0.00093469,"MEAN_MOTION_DOT":0.00025551,"MEAN_MOTION_DDOT":0},{"OBJECT_NAME":"STARLINK-34056","OBJECT_ID":"2025-093F","EPOCH":"2025-08-18T11:51:42.954624","MEAN_MOTION":15.27578522,"ECCENTRICITY":0.0001097,"INCLINATION":43.0042,"RA_OF_ASC_NODE":145.6513,"ARG_OF_PERICENTER":299.8219,"MEAN_ANOMALY":60.2523,"EPHEMERIS_TYPE":0,"CLASSIFICATION_TYPE":"U","NORAD_CAT_ID":63841,"ELEMENT_SET_NO":999,"REV_AT_EPOCH":1667,"BSTAR":0.00065592,"MEAN_MOTION_DOT":0.0001783,"MEAN_MOTION_DDOT":0},{"OBJECT_NAME":"STARLINK-34026","OBJECT_ID":"2025-093G","EPOCH":"2025-08-18T11:53:30.554592","MEAN_MOTION":15.27593522,"ECCENTRICITY":0.0001784,"INCLINATION":43.004,"RA_OF_ASC_NODE":145.6584,"ARG_OF_PERICENTER":261.9083,"MEAN_ANOMALY":98.1566,"EPHEMERIS_TYPE":0,"CLASSIFICATION_TYPE":"U","NORAD_CAT_ID":63842,"ELEMENT_SET_NO":999,"REV_AT_EPOCH":1667,"BSTAR":0.00070466,"MEAN_MOTION_DOT":0.00019187,"MEAN_MOTION_DDOT":0},{"OBJECT_NAME":"STARLINK-33777","OBJECT_ID":"2025-093H","EPOCH":"2025-08-18T10:59:51.844416","MEAN_MOTION":15.27583949,"ECCENTRICITY":0.0001105,"INCLINATION":43.0004,"RA_OF_ASC_NODE":145.3769,"ARG_OF_PERICENTER":281.142,"MEAN_ANOMALY":78.9307,"EPHEMERIS_TYPE":0,"CLASSIFICATION_TYPE":"U","NORAD_CAT_ID":63843,"ELEMENT_SET_NO":999,"REV_AT_EPOCH":1689,"BSTAR":0.00021101,"MEAN_MOTION_DOT":5.55e-5,"MEAN_MOTION_DDOT":0},{"OBJECT_NAME":"STARLINK-34041","OBJECT_ID":"2025-093J","EPOCH":"2025-08-18T04:10:08.453280","MEAN_MOTION":15.27605321,"ECCENTRICITY":0.0001714,"INCLINATION":43.0013,"RA_OF_ASC_NODE":147.5462,"ARG_OF_PERICENTER":265.6278,"MEAN_ANOMALY":94.4378,"EPHEMERIS_TYPE":0,"CLASSIFICATION_TYPE":"U","NORAD_CAT_ID":63844,"ELEMENT_SET_NO":999,"REV_AT_EPOCH":1684,"BSTAR":0.00075812,"MEAN_MOTION_DOT":0.00020674,"MEAN_MOTION_DDOT":0},{"OBJECT_NAME":"STARLINK-34011","OBJECT_ID":"2025-093K","EPOCH":"2025-08-18T04:21:14.828832","MEAN_MOTION":15.27583817,"ECCENTRICITY":0.0001548,"INCLINATION":43.0003,"RA_OF_ASC_NODE":147.6066,"ARG_OF_PERICENTER":265.0512,"MEAN_ANOMALY":95.0163,"EPHEMERIS_TYPE":0,"CLASSIFICATION_TYPE":"U","NORAD_CAT_ID":63845,"ELEMENT_SET_NO":999,"REV_AT_EPOCH":1662,"BSTAR":0.00063164,"MEAN_MOTION_DOT":0.00017162,"MEAN_MOTION_DDOT":0},{"OBJECT_NAME":"STARLINK-34044","OBJECT_ID":"2025-093L","EPOCH":"2025-08-18T11:01:42.859776","MEAN_MOTION":15.27597343,"ECCENTRICITY":8.76e-5,"INCLINATION":43.0011,"RA_OF_ASC_NODE":145.3893,"ARG_OF_PERICENTER":263.4841,"MEAN_ANOMALY":96.5911,"EPHEMERIS_TYPE":0,"CLASSIFICATION_TYPE":"U","NORAD_CAT_ID":63846,"ELEMENT_SET_NO":999,"REV_AT_EPOCH":1667,"BSTAR":0.00048799,"MEAN_MOTION_DOT":0.00013197,"MEAN_MOTION_DDOT":0},{"OBJECT_NAME":"STARLINK-34037","OBJECT_ID":"2025-093M","EPOCH":"2025-08-18T11:16:30.872928","MEAN_MOTION":15.27596494,"ECCENTRICITY":0.0001211,"INCLINATION":43.0021,"RA_OF_ASC_NODE":145.4628,"ARG_OF_PERICENTER":288.6149,"MEAN_ANOMALY":71.4571,"EPHEMERIS_TYPE":0,"CLASSIFICATION_TYPE":"U","NORAD_CAT_ID":63847,"ELEMENT_SET_NO":999,"REV_AT_EPOCH":1689,"BSTAR":0.00040219,"MEAN_MOTION_DOT":0.00010827,"MEAN_MOTION_DDOT":0},{"OBJECT_NAME":"STARLINK-34010","OBJECT_ID":"2025-093N","EPOCH":"2025-08-18T11:25:46.090560","MEAN_MOTION":15.27582507,"ECCENTRICITY":0.0001209,"INCLINATION":43.0024,"RA_OF_ASC_NODE":145.5077,"ARG_OF_PERICENTER":294.2201,"MEAN_ANOMALY":65.8525,"EPHEMERIS_TYPE":0,"CLASSIFICATION_TYPE":"U","NORAD_CAT_ID":63848,"ELEMENT_SET_NO":999,"REV_AT_EPOCH":1667,"BSTAR":0.00045167,"MEAN_MOTION_DOT":0.00012188,"MEAN_MOTION_DDOT":0},{"OBJECT_NAME":"STARLINK-34009","OBJECT_ID":"2025-093P","EPOCH":"2025-08-18T02:29:17.053440","MEAN_MOTION":15.27602374,"ECCENTRICITY":0.0001488,"INCLINATION":43.0016,"RA_OF_ASC_NODE":144.4136,"ARG_OF_PERICENTER":288.9304,"MEAN_ANOMALY":71.1386,"EPHEMERIS_TYPE":0,"CLASSIFICATION_TYPE":"U","NORAD_CAT_ID":63849,"ELEMENT_SET_NO":999,"REV_AT_EPOCH":1687,"BSTAR":0.0010354,"MEAN_MOTION_DOT":0.00028359,"MEAN_MOTION_DDOT":0},{"OBJECT_NAME":"STARLINK-33958","OBJECT_ID":"2025-093Q","EPOCH":"2025-08-18T02:37:50.132928","MEAN_MOTION":15.27608615,"ECCENTRICITY":0.0001726,"INCLINATION":43.0018,"RA_OF_ASC_NODE":147.9229,"ARG_OF_PERICENTER":269.115,"MEAN_ANOMALY":90.9504,"EPHEMERIS_TYPE":0,"CLASSIFICATION_TYPE":"U","NORAD_CAT_ID":63850,"ELEMENT_SET_NO":999,"REV_AT_EPOCH":1667,"BSTAR":0.00077938,"MEAN_MOTION_DOT":0.00021265,"MEAN_MOTION_DDOT":0},{"OBJECT_NAME":"STARLINK-33776","OBJECT_ID":"2025-093R","EPOCH":"2025-08-18T11:07:15.695904","MEAN_MOTION":15.27592826,"ECCENTRICITY":0.0001269,"INCLINATION":43.0013,"RA_OF_ASC_NODE":145.414,"ARG_OF_PERICENTER":279.3939,"MEAN_ANOMALY":80.677,"EPHEMERIS_TYPE":0,"CLASSIFICATION_TYPE":"U","NORAD_CAT_ID":63851,"ELEMENT_SET_NO":999,"REV_AT_EPOCH":1688,"BSTAR":0.00088785,"MEAN_MOTION_DOT":0.00024259,"MEAN_MOTION_DDOT":0},{"OBJECT_NAME":"STARLINK-34032","OBJECT_ID":"2025-093T","EPOCH":"2025-08-18T03:20:10.613472","MEAN_MOTION":15.27597328,"ECCENTRICITY":0.0001315,"INCLINATION":43.0006,"RA_OF_ASC_NODE":147.2626,"ARG_OF_PERICENTER":280.5732,"MEAN_ANOMALY":79.4971,"EPHEMERIS_TYPE":0,"CLASSIFICATION_TYPE":"U","NORAD_CAT_ID":63853,"ELEMENT_SET_NO":999,"REV_AT_EPOCH":1684,"BSTAR":0.00043736,"MEAN_MOTION_DOT":0.00011799,"MEAN_MOTION_DDOT":0},{"OBJECT_NAME":"STARLINK-34015","OBJECT_ID":"2025-093U","EPOCH":"2025-08-18T04:15:41.414688","MEAN_MOTION":15.27596068,"ECCENTRICITY":0.0001463,"INCLINATION":42.9992,"RA_OF_ASC_NODE":147.5559,"ARG_OF_PERICENTER":267.7584,"MEAN_ANOMALY":92.31,"EPHEMERIS_TYPE":0,"CLASSIFICATION_TYPE":"U","NORAD_CAT_ID":63854,"ELEMENT_SET_NO":999,"REV_AT_EPOCH":1668,"BSTAR":0.00059571,"MEAN_MOTION_DOT":0.00016175,"MEAN_MOTION_DDOT":0}]
